[{"OBJECT_NAME":"STARLINK-31338","OBJECT_ID":"2024-044E","EPOCH":"2026-03-09T08:47:28.013280","MEAN_MOTION":15.27570232,"ECCENTRICITY":8.643e-5,"INCLINATION":43.002,"RA_OF_ASC_NODE":112.5114,"ARG_OF_PERICENTER":257.0767,"MEAN_ANOMALY":102.9988,"EPHEMERIS_TYPE":0,"CLASSIFICATION_TYPE":"U","NORAD_CAT_ID":59156,"ELEMENT_SET_NO":999,"REV_AT_EPOCH":11347,"BSTAR":-6.45568e-6,"MEAN_MOTION_DOT":-4.39e-6,"MEAN_MOTION_DDOT":0},{"OBJECT_NAME":"COSMOS 886 DEB","OBJECT_ID":"1976-126M","EPOCH":"2026-03-09T22:12:52.532928","MEAN_MOTION":13.82653067,"ECCENTRICITY":0.06461963,"INCLINATION":65.7873,"RA_OF_ASC_NODE":333.1273,"ARG_OF_PERICENTER":140.6509,"MEAN_ANOMALY":224.3408,"EPHEMERIS_TYPE":0,"CLASSIFICATION_TYPE":"U","NORAD_CAT_ID":9655,"ELEMENT_SET_NO":999,"REV_AT_EPOCH":37570,"BSTAR":0.00072487394,"MEAN_MOTION_DOT":4.06e-5,"MEAN_MOTION_DDOT":0}]
